[{"OBJECT_NAME":"AC1-003","OBJECT_ID":"2025-276Z","EPOCH":"2026-03-09T17:12:51.689952","MEAN_MOTION":15.17742943,"ECCENTRICITY":0.0003195,"INCLINATION":97.4278,"RA_OF_ASC_NODE":143.9026,"ARG_OF_PERICENTER":29.6743,"MEAN_ANOMALY":330.4672,"EPHEMERIS_TYPE":0,"CLASSIFICATION_TYPE":"U","NORAD_CAT_ID":66689,"ELEMENT_SET_NO":999,"REV_AT_EPOCH":1531,"BSTAR":0.00015796492,"MEAN_MOTION_DOT":3.121e-5,"MEAN_MOTION_DDOT":0},{"OBJECT_NAME":"TRANSPORTER-15 OBJECT CJ","OBJECT_ID":"2025-276CJ","EPOCH":"2026-03-09T17:19:57.485568","MEAN_MOTION":15.21041958,"ECCENTRICITY":0.00108056,"INCLINATION":97.3697,"RA_OF_ASC_NODE":143.6602,"ARG_OF_PERICENTER":305.0415,"MEAN_ANOMALY":54.9807,"EPHEMERIS_TYPE":0,"CLASSIFICATION_TYPE":"U","NORAD_CAT_ID":66746,"ELEMENT_SET_NO":999,"REV_AT_EPOCH":1533,"BSTAR":0.00077607464,"MEAN_MOTION_DOT":0.00017213,"MEAN_MOTION_DDOT":0}]
